IRIDIUM 57 [-]          
1 25273U 98019B   24109.60502579  .00000841  00000+0  28772-3 0  9997
2 25273  86.3947 323.0965 0002142  88.0740 272.0701 14.35154382363874
IRIDIUM 63 [-]          
1 25286U 98021B   24109.51200424  .00001268  00000+0  43267-3 0  9998
2 25286  86.3953 260.0048 0002001  97.6127 262.5297 14.35686444362890
IRIDIUM 69 [-]          
1 25319U 98026A   24109.54698293  .00001592  00000+0  50061-3 0  9998
2 25319  86.3930 274.5681 0002577  33.4203 326.7158 14.39893729361939
IRIDIUM 71 [-]          
1 25320U 98026B   24109.83803252  .00001475  00000+0  46040-3 0  9997
2 25320  86.3933 269.2144 0003899  68.9321 291.2295 14.40217748362742
IRIDIUM 73 [-]          
1 25344U 98032C   24109.42206098  .00001846  00000+0  46772-3 0  9994
2 25344  86.4455 226.9000 0002052  77.9983 282.1451 14.50426489368961
IRIDIUM 82 [-]          
1 25467U 98051A   24109.60709364  .00020791  00000+0  10824-2 0  9993
2 25467  86.3751 314.0204 0134069  79.6393 281.9925 15.08327390359506
IRIDIUM 2 [-]           
1 25527U 98066A   24109.69144970  .00144474  00000+0  13304-2 0  9992
2 25527  85.5091 341.8282 0004002 136.2447 223.9138 15.67188720398050
